{
    "links": {
        "self": "http://www.neowsapp.com/rest/v1/neo/54050979?api_key=iIulBulltgU6a56xZRHN4H3l9WmuAYTsLGpBGhQ2"
    },
    "id": "54050979",
    "neo_reference_id": "54050979",
    "name": "(2020 PA1)",
    "designation": "2020 PA1",
    "nasa_jpl_url": "http://ssd.jpl.nasa.gov/sbdb.cgi?sstr=54050979",
    "absolute_magnitude_h": 22.069,
    "estimated_diameter": {
        "kilometers": {
            "estimated_diameter_min": 0.102507343,
            "estimated_diameter_max": 0.2292133871
        },
        "meters": {
            "estimated_diameter_min": 102.5073429755,
            "estimated_diameter_max": 229.2133870862
        },
        "miles": {
            "estimated_diameter_min": 0.0636950902,
            "estimated_diameter_max": 0.1424265515
        },
        "feet": {
            "estimated_diameter_min": 336.3101911278,
            "estimated_diameter_max": 752.0124488878
        }
    },
    "is_potentially_hazardous_asteroid": false,
    "close_approach_data": [
        {
            "close_approach_date": "1912-08-09",
            "close_approach_date_full": "1912-Aug-09 17:42",
            "epoch_date_close_approach": -1811225880000,
            "relative_velocity": {
                "kilometers_per_second": "23.7013149277",
                "kilometers_per_hour": "85324.7337397474",
                "miles_per_hour": "53017.4713617891"
            },
            "miss_distance": {
                "astronomical": "0.4557308967",
                "lunar": "177.2793188163",
                "kilometers": "68176371.439510029",
                "miles": "42362832.8218512402"
            },
            "orbiting_body": "Earth"
        },
        {
            "close_approach_date": "1925-07-30",
            "close_approach_date_full": "1925-Jul-30 00:22",
            "epoch_date_close_approach": -1401925080000,
            "relative_velocity": {
                "kilometers_per_second": "17.6409305008",
                "kilometers_per_hour": "63507.3498027824",
                "miles_per_hour": "39460.9974371789"
            },
            "miss_distance": {
                "astronomical": "0.272524448",
                "lunar": "106.012010272",
                "kilometers": "40769076.94372576",
                "miles": "25332729.718545088"
            },
            "orbiting_body": "Earth"
        },
        {
            "close_approach_date": "1938-07-26",
            "close_approach_date_full": "1938-Jul-26 13:27",
            "epoch_date_close_approach": -991996380000,
            "relative_velocity": {
                "kilometers_per_second": "15.4886653005",
                "kilometers_per_hour": "55759.1950817878",
                "miles_per_hour": "34646.5954106808"
            },
            "miss_distance": {
                "astronomical": "0.3015798071",
                "lunar": "117.3145449619",
                "kilometers": "45115696.777170877",
                "miles": "28033594.0423050226"
            },
            "orbiting_body": "Earth"
        },
        {
            "close_approach_date": "2007-08-05",
            "close_approach_date_full": "2007-Aug-05 01:28",
            "epoch_date_close_approach": 1186277280000,
            "relative_velocity": {
                "kilometers_per_second": "21.3269598215",
                "kilometers_per_hour": "76777.055357278",
                "miles_per_hour": "47706.2764246375"
            },
            "miss_distance": {
                "astronomical": "0.3706856688",
                "lunar": "144.1967251632",
                "kilometers": "55453786.492005456",
                "miles": "34457385.1159530528"
            },
            "orbiting_body": "Earth"
        },
        {
            "close_approach_date": "2020-07-25",
            "close_approach_date_full": "2020-Jul-25 06:23",
            "epoch_date_close_approach": 1595658180000,
            "relative_velocity": {
                "kilometers_per_second": "15.7925537408",
                "kilometers_per_hour": "56853.1934669498",
                "miles_per_hour": "35326.3634628389"
            },
            "miss_distance": {
                "astronomical": "0.2985874171",
                "lunar": "116.1505052519",
                "kilometers": "44668041.606961577",
                "miles": "27755434.0179886826"
            },
            "orbiting_body": "Earth"
        }
    ],
    "orbital_data": {
        "orbit_id": "2",
        "orbit_determination_date": "2020-08-19 07:54:55",
        "first_observation_date": "2020-07-19",
        "last_observation_date": "2020-08-16",
        "data_arc_in_days": 28,
        "observations_used": 21,
        "orbit_uncertainty": "6",
        "minimum_orbit_intersection": ".273815",
        "jupiter_tisserand_invariant": "2.992",
        "epoch_osculation": "2459000.5",
        "eccentricity": ".5708878914189321",
        "semi_major_axis": "2.651428518237684",
        "inclination": "28.53347200421399",
        "ascending_node_longitude": "138.8626735009714",
        "orbital_period": "1576.951409341284",
        "perihelion_distance": "1.137760082212949",
        "perihelion_argument": "123.6840242855873",
        "aphelion_distance": "4.165096954262419",
        "perihelion_time": "2459009.029427563102",
        "mean_anomaly": "358.0528290824134",
        "mean_motion": ".2282885812888663",
        "equinox": "J2000",
        "orbit_class": {
            "orbit_class_type": "AMO",
            "orbit_class_description": "Near-Earth asteroid orbits similar to that of 1221 Amor",
            "orbit_class_range": "1.017 AU < q (perihelion) < 1.3 AU"
        }
    },
    "is_sentry_object": false
}